[{"OBJECT_NAME":"ONEWEB-0396","OBJECT_ID":"2021-132H","EPOCH":"2025-10-20T05:53:41.872992","MEAN_MOTION":13.18685054,"ECCENTRICITY":0.00017147,"INCLINATION":87.9234,"RA_OF_ASC_NODE":23.1008,"ARG_OF_PERICENTER":98.5019,"MEAN_ANOMALY":261.6307,"EPHEMERIS_TYPE":0,"CLASSIFICATION_TYPE":"U","NORAD_CAT_ID":50476,"ELEMENT_SET_NO":999,"REV_AT_EPOCH":19001,"BSTAR":7.3485822e-5,"MEAN_MOTION_DOT":4.2e-7,"MEAN_MOTION_DDOT":0},{"OBJECT_NAME":"ONEWEB-0397","OBJECT_ID":"2021-132J","EPOCH":"2025-10-20T06:15:04.217472","MEAN_MOTION":13.18685835,"ECCENTRICITY":0.00015948,"INCLINATION":87.9232,"RA_OF_ASC_NODE":23.0983,"ARG_OF_PERICENTER":101.4356,"MEAN_ANOMALY":258.6956,"EPHEMERIS_TYPE":0,"CLASSIFICATION_TYPE":"U","NORAD_CAT_ID":50477,"ELEMENT_SET_NO":999,"REV_AT_EPOCH":18999,"BSTAR":0.00015161409,"MEAN_MOTION_DOT":7.3e-7,"MEAN_MOTION_DDOT":0},{"OBJECT_NAME":"ONEWEB-0398","OBJECT_ID":"2021-132K","EPOCH":"2025-10-19T19:11:59.750304","MEAN_MOTION":13.11416655,"ECCENTRICITY":0.0001993,"INCLINATION":87.8833,"RA_OF_ASC_NODE":68.9202,"ARG_OF_PERICENTER":93.8957,"MEAN_ANOMALY":266.2399,"EPHEMERIS_TYPE":0,"CLASSIFICATION_TYPE":"U","NORAD_CAT_ID":50478,"ELEMENT_SET_NO":999,"REV_AT_EPOCH":18410,"BSTAR":-0.0014973131,"MEAN_MOTION_DOT":-5.18e-6,"MEAN_MOTION_DDOT":0},{"OBJECT_NAME":"ONEWEB-0399","OBJECT_ID":"2021-132L","EPOCH":"2025-10-20T07:41:32.001792","MEAN_MOTION":13.11416161,"ECCENTRICITY":0.00012646,"INCLINATION":87.8822,"RA_OF_ASC_NODE":68.8349,"ARG_OF_PERICENTER":80.0299,"MEAN_ANOMALY":280.0972,"EPHEMERIS_TYPE":0,"CLASSIFICATION_TYPE":"U","NORAD_CAT_ID":50479,"ELEMENT_SET_NO":999,"REV_AT_EPOCH":18416,"BSTAR":-0.00082833846,"MEAN_MOTION_DOT":-2.81e-6,"MEAN_MOTION_DDOT":0},{"OBJECT_NAME":"ONEWEB-0400","OBJECT_ID":"2021-132M","EPOCH":"2025-10-20T07:33:27.396288","MEAN_MOTION":13.18685348,"ECCENTRICITY":0.00019892,"INCLINATION":87.9231,"RA_OF_ASC_NODE":23.0774,"ARG_OF_PERICENTER":100.2783,"MEAN_ANOMALY":259.8574,"EPHEMERIS_TYPE":0,"CLASSIFICATION_TYPE":"U","NORAD_CAT_ID":50480,"ELEMENT_SET_NO":999,"REV_AT_EPOCH":18999,"BSTAR":3.5348215e-5,"MEAN_MOTION_DOT":2.7e-7,"MEAN_MOTION_DDOT":0},{"OBJECT_NAME":"ONEWEB-0401","OBJECT_ID":"2021-132N","EPOCH":"2025-10-20T06:48:20.125728","MEAN_MOTION":13.18685245,"ECCENTRICITY":0.0001671,"INCLINATION":87.9229,"RA_OF_ASC_NODE":23.0808,"ARG_OF_PERICENTER":106.6184,"MEAN_ANOMALY":253.5132,"EPHEMERIS_TYPE":0,"CLASSIFICATION_TYPE":"U","NORAD_CAT_ID":50481,"ELEMENT_SET_NO":999,"REV_AT_EPOCH":18999,"BSTAR":8.9061652e-5,"MEAN_MOTION_DOT":4.8e-7,"MEAN_MOTION_DDOT":0},{"OBJECT_NAME":"ONEWEB-0402","OBJECT_ID":"2021-132P","EPOCH":"2025-10-20T05:56:04.228224","MEAN_MOTION":13.18685119,"ECCENTRICITY":0.00014548,"INCLINATION":87.9229,"RA_OF_ASC_NODE":23.0808,"ARG_OF_PERICENTER":120.702,"MEAN_ANOMALY":239.4256,"EPHEMERIS_TYPE":0,"CLASSIFICATION_TYPE":"U","NORAD_CAT_ID":50482,"ELEMENT_SET_NO":999,"REV_AT_EPOCH":19001,"BSTAR":-2.6862e-6,"MEAN_MOTION_DOT":1.2e-7,"MEAN_MOTION_DDOT":0},{"OBJECT_NAME":"ONEWEB-0403","OBJECT_ID":"2021-132Q","EPOCH":"2025-10-20T06:31:41.782368","MEAN_MOTION":13.18685147,"ECCENTRICITY":0.00018111,"INCLINATION":87.9233,"RA_OF_ASC_NODE":23.096,"ARG_OF_PERICENTER":97.8454,"MEAN_ANOMALY":262.2884,"EPHEMERIS_TYPE":0,"CLASSIFICATION_TYPE":"U","NORAD_CAT_ID":50483,"ELEMENT_SET_NO":999,"REV_AT_EPOCH":18997,"BSTAR":8.5269561e-5,"MEAN_MOTION_DOT":4.7e-7,"MEAN_MOTION_DDOT":0},{"OBJECT_NAME":"ONEWEB-0404","OBJECT_ID":"2021-132R","EPOCH":"2025-10-20T07:14:42.061344","MEAN_MOTION":13.11414962,"ECCENTRICITY":0.00015336,"INCLINATION":87.8827,"RA_OF_ASC_NODE":68.8462,"ARG_OF_PERICENTER":82.7988,"MEAN_ANOMALY":277.3314,"EPHEMERIS_TYPE":0,"CLASSIFICATION_TYPE":"U","NORAD_CAT_ID":50484,"ELEMENT_SET_NO":999,"REV_AT_EPOCH":18425,"BSTAR":0.0010545899,"MEAN_MOTION_DOT":3.86e-6,"MEAN_MOTION_DDOT":0},{"OBJECT_NAME":"ONEWEB-0405","OBJECT_ID":"2021-132S","EPOCH":"2025-10-20T06:53:04.333344","MEAN_MOTION":13.18684669,"ECCENTRICITY":0.00015293,"INCLINATION":87.9232,"RA_OF_ASC_NODE":23.0777,"ARG_OF_PERICENTER":105.3061,"MEAN_ANOMALY":254.8241,"EPHEMERIS_TYPE":0,"CLASSIFICATION_TYPE":"U","NORAD_CAT_ID":50485,"ELEMENT_SET_NO":999,"REV_AT_EPOCH":19037,"BSTAR":6.9299846e-5,"MEAN_MOTION_DOT":4.0e-7,"MEAN_MOTION_DDOT":0},{"OBJECT_NAME":"ONEWEB-0406","OBJECT_ID":"2021-132T","EPOCH":"2025-10-20T06:38:50.284032","MEAN_MOTION":13.18685386,"ECCENTRICITY":0.00020149,"INCLINATION":87.9233,"RA_OF_ASC_NODE":23.1036,"ARG_OF_PERICENTER":87.1731,"MEAN_ANOMALY":272.9632,"EPHEMERIS_TYPE":0,"CLASSIFICATION_TYPE":"U","NORAD_CAT_ID":50486,"ELEMENT_SET_NO":999,"REV_AT_EPOCH":19000,"BSTAR":1.5701522e-5,"MEAN_MOTION_DOT":1.9e-7,"MEAN_MOTION_DDOT":0},{"OBJECT_NAME":"ONEWEB-0407","OBJECT_ID":"2021-132U","EPOCH":"2025-10-20T06:29:19.269024","MEAN_MOTION":13.18686886,"ECCENTRICITY":0.0001836,"INCLINATION":87.9228,"RA_OF_ASC_NODE":23.0886,"ARG_OF_PERICENTER":106.5716,"MEAN_ANOMALY":253.5618,"EPHEMERIS_TYPE":0,"CLASSIFICATION_TYPE":"U","NORAD_CAT_ID":50487,"ELEMENT_SET_NO":999,"REV_AT_EPOCH":18994,"BSTAR":-0.00011513926,"MEAN_MOTION_DOT":-3.2e-7,"MEAN_MOTION_DDOT":0},{"OBJECT_NAME":"ONEWEB-0409","OBJECT_ID":"2021-132V","EPOCH":"2025-10-20T07:12:15.368832","MEAN_MOTION":13.11417017,"ECCENTRICITY":0.00018619,"INCLINATION":87.8842,"RA_OF_ASC_NODE":68.8081,"ARG_OF_PERICENTER":87.3263,"MEAN_ANOMALY":272.8078,"EPHEMERIS_TYPE":0,"CLASSIFICATION_TYPE":"U","NORAD_CAT_ID":50488,"ELEMENT_SET_NO":999,"REV_AT_EPOCH":18414,"BSTAR":0.0012561525,"MEAN_MOTION_DOT":4.58e-6,"MEAN_MOTION_DDOT":0},{"OBJECT_NAME":"ONEWEB-0412","OBJECT_ID":"2021-132W","EPOCH":"2025-10-20T06:12:40.860000","MEAN_MOTION":13.18688608,"ECCENTRICITY":0.00015343,"INCLINATION":87.9233,"RA_OF_ASC_NODE":23.104,"ARG_OF_PERICENTER":109.8139,"MEAN_ANOMALY":250.3158,"EPHEMERIS_TYPE":0,"CLASSIFICATION_TYPE":"U","NORAD_CAT_ID":50489,"ELEMENT_SET_NO":999,"REV_AT_EPOCH":19003,"BSTAR":0.00024568793,"MEAN_MOTION_DOT":1.1e-6,"MEAN_MOTION_DDOT":0},{"OBJECT_NAME":"ONEWEB-0413","OBJECT_ID":"2021-132X","EPOCH":"2025-10-20T06:19:49.355616","MEAN_MOTION":13.18685323,"ECCENTRICITY":0.00016568,"INCLINATION":87.9233,"RA_OF_ASC_NODE":23.1203,"ARG_OF_PERICENTER":112.11,"MEAN_ANOMALY":248.0208,"EPHEMERIS_TYPE":0,"CLASSIFICATION_TYPE":"U","NORAD_CAT_ID":50490,"ELEMENT_SET_NO":999,"REV_AT_EPOCH":18997,"BSTAR":5.8195836e-5,"MEAN_MOTION_DOT":3.6e-7,"MEAN_MOTION_DDOT":0},{"OBJECT_NAME":"ONEWEB-0414","OBJECT_ID":"2021-132Y","EPOCH":"2025-10-20T05:58:26.916960","MEAN_MOTION":13.18685809,"ECCENTRICITY":0.00015846,"INCLINATION":87.9232,"RA_OF_ASC_NODE":23.082,"ARG_OF_PERICENTER":101.6484,"MEAN_ANOMALY":258.4826,"EPHEMERIS_TYPE":0,"CLASSIFICATION_TYPE":"U","NORAD_CAT_ID":50491,"ELEMENT_SET_NO":999,"REV_AT_EPOCH":19000,"BSTAR":0.000172319,"MEAN_MOTION_DOT":8.1e-7,"MEAN_MOTION_DDOT":0},{"OBJECT_NAME":"ONEWEB-0417","OBJECT_ID":"2021-132Z","EPOCH":"2025-10-20T06:10:19.770528","MEAN_MOTION":13.18685917,"ECCENTRICITY":0.0001793,"INCLINATION":87.9234,"RA_OF_ASC_NODE":23.1138,"ARG_OF_PERICENTER":93.5795,"MEAN_ANOMALY":266.5542,"EPHEMERIS_TYPE":0,"CLASSIFICATION_TYPE":"U","NORAD_CAT_ID":50492,"ELEMENT_SET_NO":999,"REV_AT_EPOCH":18998,"BSTAR":-2.2555137e-5,"MEAN_MOTION_DOT":4.0e-8,"MEAN_MOTION_DDOT":0}]
