ONEWEB-0396             
1 50476U 21132H   25293.24562353  .00000042  00000+0  73486-4 0  9999
2 50476  87.9234  23.1008 0001714  98.5019 261.6307 13.18685054190013
ONEWEB-0397             
1 50477U 21132J   25293.26046548  .00000073  00000+0  15161-3 0  9994
2 50477  87.9232  23.0983 0001594 101.4356 258.6956 13.18685835189995
ONEWEB-0398             
1 50478U 21132K   25292.79999711 -.00000518  00000+0 -14973-2 0  9996
2 50478  87.8833  68.9202 0001993  93.8957 266.2399 13.11416655184107
ONEWEB-0399             
1 50479U 21132L   25293.32050928 -.00000281  00000+0 -82834-3 0  9994
2 50479  87.8822  68.8349 0001264  80.0299 280.0972 13.11416161184164
ONEWEB-0400             
1 50480U 21132M   25293.31490042  .00000027  00000+0  35348-4 0  9995
2 50480  87.9231  23.0774 0001989 100.2783 259.8574 13.18685348189993
ONEWEB-0401             
1 50481U 21132N   25293.28356627  .00000048  00000+0  89062-4 0  9997
2 50481  87.9229  23.0808 0001671 106.6184 253.5132 13.18685245189999
ONEWEB-0402             
1 50482U 21132P   25293.24727116  .00000012  00000+0 -26862-5 0  9991
2 50482  87.9229  23.0808 0001454 120.7020 239.4256 13.18685119190010
ONEWEB-0403             
1 50483U 21132Q   25293.27201137  .00000047  00000+0  85270-4 0  9999
2 50483  87.9233  23.0960 0001811  97.8454 262.2884 13.18685147189972
ONEWEB-0404             
1 50484U 21132R   25293.30187571  .00000386  00000+0  10546-2 0  9997
2 50484  87.8827  68.8462 0001533  82.7988 277.3314 13.11414962184250
ONEWEB-0405             
1 50485U 21132S   25293.28685571  .00000040  00000+0  69300-4 0  9999
2 50485  87.9232  23.0777 0001529 105.3061 254.8241 13.18684669190372
ONEWEB-0406             
1 50486U 21132T   25293.27697088  .00000019  00000+0  15702-4 0  9998
2 50486  87.9233  23.1036 0002014  87.1731 272.9632 13.18685386190006
ONEWEB-0407             
1 50487U 21132U   25293.27036191 -.00000032  00000+0 -11514-3 0  9994
2 50487  87.9228  23.0886 0001836 106.5716 253.5618 13.18686886189949
ONEWEB-0409             
1 50488U 21132V   25293.30017788  .00000458  00000+0  12562-2 0  9993
2 50488  87.8842  68.8081 0001861  87.3263 272.8078 13.11417017184148
ONEWEB-0412             
1 50489U 21132W   25293.25880625  .00000110  00000+0  24569-3 0  9992
2 50489  87.9233  23.1040 0001534 109.8139 250.3158 13.18688608190030
ONEWEB-0413             
1 50490U 21132X   25293.26376569  .00000036  00000+0  58196-4 0  9993
2 50490  87.9233  23.1203 0001656 112.1100 248.0208 13.18685323189975
ONEWEB-0414             
1 50491U 21132Y   25293.24892265  .00000081  00000+0  17232-3 0  9993
2 50491  87.9232  23.0820 0001584 101.6484 258.4826 13.18685809190003
ONEWEB-0417             
1 50492U 21132Z   25293.25717327  .00000004  00000+0 -22555-4 0  9991
2 50492  87.9234  23.1138 0001793  93.5795 266.5542 13.18685917189985
